HAIYANG-2D              
1 48621U 21043A   25139.21356751 -.00000014  00000+0  61207-4 0  9996
2 48621  65.9971 205.5583 0007929 263.3324  96.6841 13.83378296202095
2021-050D               
1 48843U 21050D   25139.17891686  .00007214  00000+0  30559-3 0  9999
2 48843  97.3678 218.1552 0008664 102.6736 257.5470 15.23422558218976
BRIK-II                 
1 48876U 21058F   25138.62259858  .00045849  00000+0  50954-3 0  9998
2 48876  60.6619 246.4787 0003915  18.9420 341.1830 15.62585912216950
TYVAK-0173              
1 48892U 21059P   25139.03680798  .00002581  00000+0  34831-3 0  9996
2 48892  95.9856 309.1962 0007735 288.0933  71.9441 14.79631860209912
TUBIN                   
1 48900U 21059X   25139.16575697  .00042753  00000+0  55588-3 0  9998
2 48900  97.6750 306.6853 0002361 301.2513  58.8511 15.58673535216707
MANDRAKE 2 ABLE         
1 48907U 21059AE  25138.88332486  .00014101  00000+0  36547-3 0  9990
2 48907  97.6873 299.2746 0005522 358.6504   1.4725 15.39132725216190
MANDRAKE 2 BAKER        
1 48908U 21059AF  25138.91381188  .00017425  00000+0  42637-3 0  9997
2 48908  97.6875 300.3851 0004381 339.9212  20.1861 15.40845798216253
PACE-1                  
1 48909U 21059AG  25139.19170546  .00020050  00000+0  41948-3 0  9995
2 48909  97.6766 301.1009 0003950 329.0248  31.0767 15.45497822216439
YAM-2                   
1 48911U 21059AJ  25138.89198325  .00107237  00000+0  77094-3 0  9993
2 48911  97.6694 312.0833 0003276 259.4050 100.6844 15.73289253217007
YAM-3                   
1 48915U 21059AN  25138.40629385  .00012480  00000+0  34014-3 0  9999
2 48915  97.6819 298.4164 0005807 345.7938  14.3141 15.37610589216123
FARADAY_PHOENIX         
1 48924U 21059AX  25138.70998277  .00017831  00000+0  40661-3 0  9991
2 48924  97.6840 302.9102 0008048 326.7084  33.3656 15.42942913216397
DEMO8 (TENZING)         
1 48951U 21059CA  25139.18653107  .00013060  00000+0  33087-3 0  9998
2 48951  97.6914 302.8812 0008668 343.0844  17.0111 15.39827755216409
ASTROCAST-0201          
1 48954U 21059CD  25138.42568284  .00037081  00000+0  57697-3 0  9990
2 48954  97.6552 305.4121 0004448   5.6070 354.5232 15.53818318216657
ASTROCAST-0203          
1 48955U 21059CE  25138.89413462  .00032875  00000+0  51053-3 0  9995
2 48955  97.6560 305.4475 0002854 341.9976  18.1176 15.53903262216720
ASTROCAST-0205          
1 48960U 21059CK  25138.98406715  .00039440  00000+0  61216-3 0  9991
2 48960  97.6522 305.8123 0006211 289.8897  70.1686 15.53863109216742
NAPA-2                  
1 48963U 21059CN  25139.20501976  .00019497  00000+0  40545-3 0  9997
2 48963  97.6773 300.0953 0005282 330.4907  29.6042 15.45676733216328
W-CUBE                  
1 48965U 21059CQ  25138.71742388  .00082837  00000+0  77165-3 0  9994
2 48965  97.6691 307.9980 0004032 270.1843  89.8954 15.67094665216744
JILIN-1 GAOFEN 3D01     
1 49004U 21061B   25139.16806990  .00042286  00000+0  71067-3 0  9991
2 49004  97.3469 212.2134 0007293 293.1257  66.9226 15.51620776215304
JILIN-1 GAOFEN 3D03     
1 49006U 21061D   25139.19974754  .00025217  00000+0  60515-3 0  9991
2 49006  97.3439 204.5741 0008401  91.6938 268.5271 15.41325041214811
XINGSHIDAI 10           
1 49007U 21061E   25139.22040101  .00024815  00000+0  60253-3 0  9998
2 49007  97.3431 204.6095 0007594  82.2471 277.9638 15.40979745214813
FENGYUN 3E              
1 49008U 21062A   25139.14363229  .00000018  00000+0  29276-4 0  9990
2 49008  98.7420 142.1329 0002480 122.2035 237.9382 14.19864434200666
ISS (NAUKA)             
1 49044U 21066A   25138.86196501  .00008819  00000+0  16460-3 0  9996
2 49044  51.6355  92.3536 0002211 123.9616 236.1583 15.49599819212890
LEDSAT                  
1 49069U 21073D   25139.19327768  .00061482  00000+0  81615-3 0  9998
2 49069  97.3890 219.8828 0011847 156.4110 203.7691 15.57956179208107
STARLINK-3100           
1 49144U 21082Q   25138.88941545 -.00000348  00000+0 -21370-4 0  9991
2 49144  69.9990 317.7411 0002971 268.1037  91.9782 14.98328200201822
CUTE                    
1 49263U 21088D   25139.20005224  .00015808  00000+0  32330-3 0  9993
2 49263  97.4507 214.8479 0006826 324.8446  35.2352 15.46195860201127
2021-091B               
1 49316U 21091B   25139.20138952  .00004000  00000+0  19372-3 0  9994
2 49316  97.4514 327.8279 0011624 260.1198  99.8724 15.19079816199201
SDGSAT 1                
1 49387U 21100A   25139.18185315  .00003510  00000+0  16777-3 0  9996
2 49387  97.3154 194.5040 0005184 248.3428 111.7256 15.19643700196087
TEIKYOSAT-4 (OORURI)    
1 49396U 21102B   25138.84720206  .00002900  00000+0  19450-3 0  9997
2 49396  97.4118 178.0595 0011996 200.8284 159.2457 15.07551022193271
Z-SAT                   
1 49399U 21102E   25139.14317808  .00004665  00000+0  25784-3 0  9991
2 49399  97.3814 181.3097 0018502 173.1646 186.9842 15.14223424193730
HIBARI                  
1 49400U 21102F   25138.69352535  .00010755  00000+0  46489-3 0  9991
2 49400  97.3777 185.4483 0015431 150.8599 209.3502 15.22538035193999
KOSEN-1                 
1 49402U 21102H   25139.08002629  .00008293  00000+0  38667-3 0  9996
2 49402  97.3718 184.5028 0017064 149.6161 210.6067 15.19992054194023
GLOBAL-14               
1 49469U 21106A   25138.84776184  .00015866  00000+0  47287-3 0  9992
2 49469  42.0076  81.0931 0005865 193.3249 166.7435 15.34361576197280
GAOFEN-3 02             
1 49495U 21109A   25139.18972748  .00000077  00000+0  36469-4 0  9995
2 49495  98.4115 147.8246 0003802  92.5950 267.5675 14.42212073183529
GLOBAL-12               
1 49772U 21115BA  25138.34313560  .00019872  00000+0  53106-3 0  9997
2 49772  53.1984 114.2744 0006127  17.2946 342.8266 15.38089122194924
GLOBAL-13               
1 49773U 21115BB  25139.22281054  .00015171  00000+0  40798-3 0  9999
2 49773  53.1999 111.3941 0005363 353.9969   6.0970 15.38104012195045
GLOBAL-17               
1 49949U 21120A   25138.58614386  .00017152  00000+0  50464-3 0  9998
2 49949  41.9973 204.6450 0003377 336.2170  23.8511 15.34734090193978
GLOBAL-16               
1 49950U 21120B   25138.87973284  .00014889  00000+0  43960-3 0  9994
2 49950  41.9974 202.5026 0005714 342.2201  17.8436 15.34697054194019
XW-3 (CAS-9)            
1 50466U 21131B   25139.16318703  .00000607  00000+0  20352-3 0  9995
2 50466  98.5091 228.6223 0004113 183.1473 176.9690 14.40788320178366
ION SCV-004             
1 50993U 22002K   25138.91800926  .00006130  00000+0  24480-3 0  9996
2 50993  97.3373 198.9820 0006824 321.6284  38.4468 15.25486815185094
IRIS-A                  
1 51044U 22002BN  25139.16522095  .00432802  76879-4  11252-2 0  9993
2 51044  97.3193 218.9727 0007927 230.7331 129.3242 15.94961396186481
ETV-A1                  
1 51060U 22002CE  25139.14191132  .00010263  00000+0  34148-3 0  9994
2 51060  97.3390 203.0745 0005099 330.1617  29.9333 15.31331020185361
BRO-5                   
1 51061U 22002CF  25139.18970301  .00009477  00000+0  27433-3 0  9996
2 51061  97.3458 207.1200 0004831 321.9824  38.1078 15.35793035185594
VZLUSAT-2               
1 51085U 22002DF  25139.18987773  .00042967  00000+0  63681-3 0  9999
2 51085  97.3332 211.5021 0004571 260.9053  99.1684 15.55123993185950
L-SAR 01A               
1 51284U 22007A   25139.16429646  .00000875  00000+0  10027-3 0  9991
2 51284  97.8110 147.2267 0001598  90.5174 269.6225 14.88410336179867
INSPIRESAT 1            
1 51657U 22013B   25138.80900357  .00028668  00000+0  62453-3 0  9995
2 51657  97.4920 167.6868 0008090  66.1272 294.0823 15.44200846181024
L-SAR 01B               
1 51822U 22018A   25139.19784881  .00000820  00000+0  94347-4 0  9997
2 51822  97.8096 147.2404 0001519  94.2984 265.8406 14.88411327175107
2022-019D               
1 51827U 22019D   25139.21832478  .00018823  00000+0  48650-3 0  9999
2 51827  97.3944 216.4367 0011424 126.2605 233.9698 15.39092458178624
JILIN-1 GAOFEN 03D14    
1 51831U 22019H   25139.21616673  .00024490  00000+0  60525-3 0  9993
2 51831  97.3965 218.7574 0011717 114.9562 245.2903 15.40404019178771
2022-019J               
1 51832U 22019J   25139.15854718  .00002893  00000+0  14480-3 0  9993
2 51832  97.3897 206.5250 0009877 156.8876 203.2804 15.18150371177978
JILIN-1 GAOFEN 03D16    
1 51834U 22019L   25139.21552566  .00025464  00000+0  60745-3 0  9992
2 51834  97.3941 219.1517 0008906 117.2734 242.9420 15.41498992178809
JILIN-1 GAOFEN 03D11    
1 51835U 22019M   25139.16286562  .00029127  00000+0  72490-3 0  9997
2 51835  97.3975 218.9094 0007887 130.9745 229.2184 15.40195416178770
JILIN-1 GAOFEN 03D17    
1 51838U 22019Q   25139.19402686  .00097311  00000+0  86234-3 0  9991
2 51838  97.3958 225.8973 0006031 126.1042 234.0779 15.68269735179247
JILIN-1 GAOFEN 03D15    
1 51839U 22019R   25139.20013944  .00021873  00000+0  57022-3 0  9992
2 51839  97.3948 218.3814 0006560 144.8384 215.3295 15.38841891178768
JILIN-1 GAOFEN 03D10    
1 51840U 22019S   25139.17559569  .00024242  00000+0  60423-3 0  9990
2 51840  97.3953 219.0260 0002576  89.6548 270.4993 15.40215476178786
JILIN-1 GAOFEN 03D12    
1 51841U 22019T   25139.15487842  .00026422  00000+0  68829-3 0  9993
2 51841  97.3935 218.2692 0005888 104.3730 255.8170 15.38831522178758
JILIN-1 GAOFEN 03D18    
1 51844U 22019W   25139.18474621  .00024446  00000+0  60982-3 0  9996
2 51844  97.3929 218.2815 0012248 113.8561 246.3969 15.40113632178665
2022-023F               
1 51951U 22023F   25139.20102671  .00006390  78934-8  27304-3 0  9995
2 51951  63.4908 172.2947 0094237 339.1013  20.6258 15.18541513158618
CZ-4C R/B               
1 52085U 22027B   25138.93685591 -.00000042  00000+0  56895-4 0  9991
2 52085  63.3976  28.2686 0197476  24.4353 336.5889 13.65443485158204
MERIDIAN 10             
1 52145U 22030A   25139.16634637  .00000273  00000+0  00000+0 0  9990
2 52145  62.6569 182.2729 6747627 273.4391  17.7596  2.00602483 23119
